ONEWEB-0528             
1 54643U 22166B   23267.02859684 -.00000487  00000+0 -12112-2 0  9990
2 54643  87.9171  82.5061 0001797  87.4310 272.7029 13.21828342 40261
ONEWEB-0539             
1 54644U 22166C   23266.53657626 -.00000029  00000+0 -10287-3 0  9992
2 54644  87.9176  82.6042 0001761  99.7534 260.3799 13.21827225 39749
ONEWEB-0540             
1 54645U 22166D   23266.53027251  .00000095  00000+0  19755-3 0  9998
2 54645  87.9175  82.6304 0001740  97.6556 262.4776 13.21824905 39737
ONEWEB-0542             
1 54646U 22166E   23266.54497866 -.00000263  00000+0 -66925-3 0  9993
2 54646  87.9173  82.6029 0001380 107.9097 252.2188 13.21825639 39745
ONEWEB-0545             
1 54647U 22166F   23266.51135767  .00000104  00000+0  22121-3 0  9992
2 54647  87.9172  82.6495 0001938 108.7894 251.3451 13.21826070 39704
ONEWEB-0580             
1 54648U 22166G   23266.56180130 -.00000154  00000+0 -40425-3 0  9996
2 54648  87.9169  82.5958 0001253 106.9832 253.1439 13.21825506 39750
ONEWEB-0582             
1 54649U 22166H   23267.05594029  .00000042  00000+0  69825-4 0  9998
2 54649  87.9175  82.5346 0001927  96.4024 263.7329 13.21826740 40267
ONEWEB-0583             
1 54650U 22166J   23266.53867750 -.00000025  00000+0 -91303-4 0  9995
2 54650  87.9176  82.6453 0001930  77.8694 282.2656 13.21827478 39738
